FLOCK 4Q-16             
1 58271U 23174R   26195.80185260  .00013556  00000+0  24026-3 0  9999
2 58271  97.3832 284.5723 0006854  78.4071 281.7950 15.50358836149851
FLOCK 4Q-11             
1 58273U 23174T   26195.77500683  .00014699  00000+0  25583-3 0  9995
2 58273  97.3866 285.1800 0006414  73.0840 287.1114 15.50856938149869
FLOCK 4Q-28             
1 58280U 23174AA  26195.76515918  .00018386  00000+0  25828-3 0  9998
2 58280  97.3891 287.9013 0004859  65.2172 294.9588 15.56751101150037
FLOCK 4Q-27             
1 58282U 23174AC  26195.95981953  .00020361  00000+0  28373-3 0  9991
2 58282  97.3817 287.5099 0004023  70.3936 289.7753 15.56950984150075
FLOCK 4Q-7              
1 58318U 23174BQ  26195.78530273  .00023170  00000+0  31785-3 0  9999
2 58318  97.3922 288.2471 0004587  44.0569 316.1051 15.57346669150042
FLOCK 4Q-2              
1 58320U 23174BS  26195.88887478  .00015645  00000+0  27252-3 0  9997
2 58320  97.3848 285.0097 0004841  52.5564 307.6127 15.50829625149894
FLOCK 4Q-9              
1 58322U 23174BU  26195.77666658  .00017610  00000+0  30100-3 0  9992
2 58322  97.3860 285.0056 0005660  51.9287 308.2475 15.51333756149866
FLOCK 4Q-4              
1 58327U 23174BZ  26195.72596197  .00014145  00000+0  25524-3 0  9996
2 58327  97.3836 284.0692 0005799  75.7414 284.4481 15.49844872149829
FLOCK 4Q-13             
1 58328U 23174CA  26195.77634132  .00015330  00000+0  24830-3 0  9990
2 58328  97.4012 287.4228 0005931  56.8838 303.2983 15.52871499149957
FLOCK 4BE-18            
1 60480U 24149N   26195.78474943  .00007893  00000+0  18283-3 0  9998
2 60480  97.3738 279.8183 0005029 146.5344 213.6223 15.42705125106567
FLOCK 4BE-7             
1 60481U 24149P   26195.75267538  .00012695  00000+0  30524-3 0  9994
2 60481  97.3760 279.0770 0004257 149.9292 210.2200 15.41441547106492
FLOCK 4BE-36            
1 60486U 24149U   26195.67662467  .00010628  00000+0  23874-3 0  9994
2 60486  97.3746 280.4490 0004732 154.4494 205.6989 15.43530757106596
FLOCK 4BE-25            
1 60487U 24149V   26195.78266303  .00008494  00000+0  21824-3 0  9997
2 60487  97.3799 279.1325 0003587 143.6636 216.4854 15.39538379106484
FLOCK 4BE-31            
1 60488U 24149W   26195.68097778  .00013445  00000+0  28550-3 0  9990
2 60488  97.3799 281.3946 0003759 152.4950 207.6499 15.45144054106620
FLOCK 4BE-20            
1 60489U 24149X   26195.75959464  .00008293  00000+0  21825-3 0  9991
2 60489  97.3695 277.9190 0005021 154.7573 205.3919 15.38803225106455
FLOCK 4BE-23            
1 60490U 24149Y   26195.75735094  .00008172  00000+0  21823-3 0  9998
2 60490  97.3779 278.3075 0004677 157.9902 202.1545 15.38358059106432
