{"fetched_at":"2026-07-15T06:35:37.596Z","source":"https://celestrak.org/NORAD/elements/gp.php?GROUP=planet&FORMAT=JSON","constellation":"superdove","records":[{"OBJECT_NAME":"FLOCK 4Q-16","OBJECT_ID":"2023-174R","EPOCH":"2026-07-14T19:14:40.064640","CLASSIFICATION_TYPE":"U","MEAN_MOTION":15.50358836,"ECCENTRICITY":0.00068543,"INCLINATION":97.3832,"RA_OF_ASC_NODE":284.5723,"ARG_OF_PERICENTER":78.4071,"MEAN_ANOMALY":281.795,"EPHEMERIS_TYPE":0,"NORAD_CAT_ID":58271,"ELEMENT_SET_NO":999,"REV_AT_EPOCH":14985,"BSTAR":0.00024026308,"MEAN_MOTION_DOT":0.00013556,"MEAN_MOTION_DDOT":0},{"OBJECT_NAME":"FLOCK 4Q-11","OBJECT_ID":"2023-174T","EPOCH":"2026-07-14T18:36:00.590112","CLASSIFICATION_TYPE":"U","MEAN_MOTION":15.50856938,"ECCENTRICITY":0.00064146,"INCLINATION":97.3866,"RA_OF_ASC_NODE":285.18,"ARG_OF_PERICENTER":73.084,"MEAN_ANOMALY":287.1114,"EPHEMERIS_TYPE":0,"NORAD_CAT_ID":58273,"ELEMENT_SET_NO":999,"REV_AT_EPOCH":14986,"BSTAR":0.00025582932,"MEAN_MOTION_DOT":0.00014699,"MEAN_MOTION_DDOT":0},{"OBJECT_NAME":"FLOCK 4Q-28","OBJECT_ID":"2023-174AA","EPOCH":"2026-07-14T18:21:49.753152","CLASSIFICATION_TYPE":"U","MEAN_MOTION":15.56751101,"ECCENTRICITY":0.00048594,"INCLINATION":97.3891,"RA_OF_ASC_NODE":287.9013,"ARG_OF_PERICENTER":65.2172,"MEAN_ANOMALY":294.9588,"EPHEMERIS_TYPE":0,"NORAD_CAT_ID":58280,"ELEMENT_SET_NO":999,"REV_AT_EPOCH":15003,"BSTAR":0.00025827797,"MEAN_MOTION_DOT":0.00018386,"MEAN_MOTION_DDOT":0},{"OBJECT_NAME":"FLOCK 4Q-27","OBJECT_ID":"2023-174AC","EPOCH":"2026-07-14T23:02:08.407392","CLASSIFICATION_TYPE":"U","MEAN_MOTION":15.56950984,"ECCENTRICITY":0.00040237,"INCLINATION":97.3817,"RA_OF_ASC_NODE":287.5099,"ARG_OF_PERICENTER":70.3936,"MEAN_ANOMALY":289.7753,"EPHEMERIS_TYPE":0,"NORAD_CAT_ID":58282,"ELEMENT_SET_NO":999,"REV_AT_EPOCH":15007,"BSTAR":0.00028373337,"MEAN_MOTION_DOT":0.00020361,"MEAN_MOTION_DDOT":0},{"OBJECT_NAME":"FLOCK 4Q-7","OBJECT_ID":"2023-174BQ","EPOCH":"2026-07-14T18:50:50.155872","CLASSIFICATION_TYPE":"U","MEAN_MOTION":15.57346669,"ECCENTRICITY":0.00045875,"INCLINATION":97.3922,"RA_OF_ASC_NODE":288.2471,"ARG_OF_PERICENTER":44.0569,"MEAN_ANOMALY":316.1051,"EPHEMERIS_TYPE":0,"NORAD_CAT_ID":58318,"ELEMENT_SET_NO":999,"REV_AT_EPOCH":15004,"BSTAR":0.00031785027,"MEAN_MOTION_DOT":0.0002317,"MEAN_MOTION_DDOT":0},{"OBJECT_NAME":"FLOCK 4Q-2","OBJECT_ID":"2023-174BS","EPOCH":"2026-07-14T21:19:58.780992","CLASSIFICATION_TYPE":"U","MEAN_MOTION":15.50829625,"ECCENTRICITY":0.0004841,"INCLINATION":97.3848,"RA_OF_ASC_NODE":285.0097,"ARG_OF_PERICENTER":52.5564,"MEAN_ANOMALY":307.6127,"EPHEMERIS_TYPE":0,"NORAD_CAT_ID":58320,"ELEMENT_SET_NO":999,"REV_AT_EPOCH":14989,"BSTAR":0.00027251812,"MEAN_MOTION_DOT":0.00015645,"MEAN_MOTION_DDOT":0},{"OBJECT_NAME":"FLOCK 4Q-9","OBJECT_ID":"2023-174BU","EPOCH":"2026-07-14T18:38:23.992512","CLASSIFICATION_TYPE":"U","MEAN_MOTION":15.51333756,"ECCENTRICITY":0.00056601,"INCLINATION":97.386,"RA_OF_ASC_NODE":285.0056,"ARG_OF_PERICENTER":51.9287,"MEAN_ANOMALY":308.2475,"EPHEMERIS_TYPE":0,"NORAD_CAT_ID":58322,"ELEMENT_SET_NO":999,"REV_AT_EPOCH":14986,"BSTAR":0.00030099792,"MEAN_MOTION_DOT":0.0001761,"MEAN_MOTION_DDOT":0},{"OBJECT_NAME":"FLOCK 4Q-4","OBJECT_ID":"2023-174BZ","EPOCH":"2026-07-14T17:25:23.114208","CLASSIFICATION_TYPE":"U","MEAN_MOTION":15.49844872,"ECCENTRICITY":0.00057992,"INCLINATION":97.3836,"RA_OF_ASC_NODE":284.0692,"ARG_OF_PERICENTER":75.7414,"MEAN_ANOMALY":284.4481,"EPHEMERIS_TYPE":0,"NORAD_CAT_ID":58327,"ELEMENT_SET_NO":999,"REV_AT_EPOCH":14982,"BSTAR":0.00025524255,"MEAN_MOTION_DOT":0.00014145,"MEAN_MOTION_DDOT":0},{"OBJECT_NAME":"FLOCK 4Q-13","OBJECT_ID":"2023-174CA","EPOCH":"2026-07-14T18:37:55.890048","CLASSIFICATION_TYPE":"U","MEAN_MOTION":15.52871499,"ECCENTRICITY":0.00059316,"INCLINATION":97.4012,"RA_OF_ASC_NODE":287.4228,"ARG_OF_PERICENTER":56.8838,"MEAN_ANOMALY":303.2983,"EPHEMERIS_TYPE":0,"NORAD_CAT_ID":58328,"ELEMENT_SET_NO":999,"REV_AT_EPOCH":14995,"BSTAR":0.00024830455,"MEAN_MOTION_DOT":0.0001533,"MEAN_MOTION_DDOT":0},{"OBJECT_NAME":"FLOCK 4BE-18","OBJECT_ID":"2024-149N","EPOCH":"2026-07-14T18:50:02.350752","CLASSIFICATION_TYPE":"U","MEAN_MOTION":15.42705125,"ECCENTRICITY":0.00050294,"INCLINATION":97.3738,"RA_OF_ASC_NODE":279.8183,"ARG_OF_PERICENTER":146.5344,"MEAN_ANOMALY":213.6223,"EPHEMERIS_TYPE":0,"NORAD_CAT_ID":60480,"ELEMENT_SET_NO":999,"REV_AT_EPOCH":10656,"BSTAR":0.00018282876,"MEAN_MOTION_DOT":0.00007893,"MEAN_MOTION_DDOT":0},{"OBJECT_NAME":"FLOCK 4BE-7","OBJECT_ID":"2024-149P","EPOCH":"2026-07-14T18:03:51.152832","CLASSIFICATION_TYPE":"U","MEAN_MOTION":15.41441547,"ECCENTRICITY":0.00042577,"INCLINATION":97.376,"RA_OF_ASC_NODE":279.077,"ARG_OF_PERICENTER":149.9292,"MEAN_ANOMALY":210.22,"EPHEMERIS_TYPE":0,"NORAD_CAT_ID":60481,"ELEMENT_SET_NO":999,"REV_AT_EPOCH":10649,"BSTAR":0.00030523978,"MEAN_MOTION_DOT":0.00012695,"MEAN_MOTION_DDOT":0},{"OBJECT_NAME":"FLOCK 4BE-36","OBJECT_ID":"2024-149U","EPOCH":"2026-07-14T16:14:20.371488","CLASSIFICATION_TYPE":"U","MEAN_MOTION":15.43530757,"ECCENTRICITY":0.00047327,"INCLINATION":97.3746,"RA_OF_ASC_NODE":280.449,"ARG_OF_PERICENTER":154.4494,"MEAN_ANOMALY":205.6989,"EPHEMERIS_TYPE":0,"NORAD_CAT_ID":60486,"ELEMENT_SET_NO":999,"REV_AT_EPOCH":10659,"BSTAR":0.00023873973,"MEAN_MOTION_DOT":0.00010628,"MEAN_MOTION_DDOT":0},{"OBJECT_NAME":"FLOCK 4BE-25","OBJECT_ID":"2024-149V","EPOCH":"2026-07-14T18:47:02.085792","CLASSIFICATION_TYPE":"U","MEAN_MOTION":15.39538379,"ECCENTRICITY":0.00035874,"INCLINATION":97.3799,"RA_OF_ASC_NODE":279.1325,"ARG_OF_PERICENTER":143.6636,"MEAN_ANOMALY":216.4854,"EPHEMERIS_TYPE":0,"NORAD_CAT_ID":60487,"ELEMENT_SET_NO":999,"REV_AT_EPOCH":10648,"BSTAR":0.00021823864,"MEAN_MOTION_DOT":0.00008494,"MEAN_MOTION_DDOT":0},{"OBJECT_NAME":"FLOCK 4BE-31","OBJECT_ID":"2024-149W","EPOCH":"2026-07-14T16:20:36.480192","CLASSIFICATION_TYPE":"U","MEAN_MOTION":15.45144054,"ECCENTRICITY":0.00037594,"INCLINATION":97.3799,"RA_OF_ASC_NODE":281.3946,"ARG_OF_PERICENTER":152.495,"MEAN_ANOMALY":207.6499,"EPHEMERIS_TYPE":0,"NORAD_CAT_ID":60488,"ELEMENT_SET_NO":999,"REV_AT_EPOCH":10662,"BSTAR":0.00028549786,"MEAN_MOTION_DOT":0.00013445,"MEAN_MOTION_DDOT":0},{"OBJECT_NAME":"FLOCK 4BE-20","OBJECT_ID":"2024-149X","EPOCH":"2026-07-14T18:13:48.976896","CLASSIFICATION_TYPE":"U","MEAN_MOTION":15.38803225,"ECCENTRICITY":0.00050216,"INCLINATION":97.3695,"RA_OF_ASC_NODE":277.919,"ARG_OF_PERICENTER":154.7573,"MEAN_ANOMALY":205.3919,"EPHEMERIS_TYPE":0,"NORAD_CAT_ID":60489,"ELEMENT_SET_NO":999,"REV_AT_EPOCH":10645,"BSTAR":0.00021824966,"MEAN_MOTION_DOT":0.00008293,"MEAN_MOTION_DDOT":0},{"OBJECT_NAME":"FLOCK 4BE-23","OBJECT_ID":"2024-149Y","EPOCH":"2026-07-14T18:10:35.121216","CLASSIFICATION_TYPE":"U","MEAN_MOTION":15.38358059,"ECCENTRICITY":0.00046774,"INCLINATION":97.3779,"RA_OF_ASC_NODE":278.3075,"ARG_OF_PERICENTER":157.9902,"MEAN_ANOMALY":202.1545,"EPHEMERIS_TYPE":0,"NORAD_CAT_ID":60490,"ELEMENT_SET_NO":999,"REV_AT_EPOCH":10643,"BSTAR":0.00021822599,"MEAN_MOTION_DOT":0.00008172,"MEAN_MOTION_DDOT":0}]}
